#aV2008  3  3  0  0   .00000000      96 DD+AD WGS84 FIT  NGA
## 1469  86400.00000000   900.00000000 54528  .0000000000000
+   31     1  2  3  4  5  6  8  9 10 11 12 13 14 15 16 17 18
+         19 20 21 22 23 24 25 26 27 28 29 30 31 32  0  0  0
+          0  0  0  0  0  0  0  0  0  0  0  0  0  0  0  0  0
+          0  0  0  0  0  0  0  0  0  0  0  0  0  0  0  0  0
+          0  0  0  0  0  0  0  0  0  0  0  0  0  0  0  0  0
++         0  0  0  0  0  0  0  0  0  0  0  0  0  0  0  0  0
++         0  0  0  0  0  0  0  0  0  0  0  0  0  0  0  0  0
++         0  0  0  0  0  0  0  0  0  0  0  0  0  0  0  0  0
++         0  0  0  0  0  0  0  0  0  0  0  0  0  0  0  0  0
++         0  0  0  0  0  0  0  0  0  0  0  0  0  0  0  0  0
%c cc cc ccc ccc cccc cccc cccc cccc ccccc ccccc ccccc ccccc
%c cc cc ccc ccc cccc cccc cccc cccc ccccc ccccc ccccc ccccc
%f  0.0000000  0.000000000  0.00000000000  0.000000000000000
%f  0.0000000  0.000000000  0.00000000000  0.000000000000000
%i    0    0    0    0      0      0      0      0         0
%i    0    0    0    0      0      0      0      0         0
/*      NGA, ST. LOUIS,MO.                                  
/*   EPHEMERIS COMPUTED FROM  3 DAYS OF DATA                
/* CCCCCCCCCCCCCCCCCCCCCCCCCCCCCCCCCCCCCCCCCCCCCCCCCCCCCCCCC
/* CCCCCCCCCCCCCCCCCCCCCCCCCCCCCCCCCCCCCCCCCCCCCCCCCCCCCCCCC
*  2008  3  3 17  0   .00000000                                                 
P  1 -17698.348785  18337.457931  -7129.196864    189.730248                    
V  1   3610.016040  -8805.556201 -30741.871050       .027879                    
P  2  14613.922554 -12897.913890  17712.484647    179.127279                    
V  2  23036.558811   2022.675740 -17688.826090       .030822                    
P  3 -10137.720687  24331.022627  -1010.882101    195.366810                    
V  3  -4246.635122   -804.454828  31159.107511       .052479                    
P  4  24209.062087  -6390.935015   9296.484821    -19.412587                    
V  4  11812.984280   2959.308384 -28069.821318      -.069985                    
P  5 -16212.538469 -21043.333461   1714.886433    709.799316                    
V  5   1279.309956  -3925.800094 -31140.715569       .126579                    
P  6 -18189.625549   4113.812921  19119.665490     48.343540                    
V  6   9814.635194 -21926.896545  14141.496745       .163556                    
P  8  26764.458451    317.977761  -1736.320095   -143.409862                    
V  8   1966.393478   1853.827292  31807.684841      -.015529                    
P  9  -9031.583427 -14233.257329 -21185.775261    113.390259                    
V  9  25390.519243  -1449.009221  -9985.838947       .018467                    
P 10   2560.181936 -20020.815694  16954.730168   -254.841222                    
V 10  12076.579971  18377.318520  20050.647602      -.020736                    
P 11  12898.371447  13398.988127 -19206.302886     26.919812                    
V 11 -23583.759108   6060.819378 -11373.108897      -.000847                    
P 12 -12010.374756 -23660.441064  -1845.515246   -357.555575                    
V 12   3528.466048    810.635874 -31646.303718      -.006122                    
P 13  12858.960220   6585.258954  22176.644103    243.411324                    
V 13 -15238.732800  23886.057204   1763.450980       .020894                    
P 14 -18568.351638  10060.642340 -15950.653070   -291.598189                    
V 14   9560.782281 -18095.126386 -22488.251784       .038435                    
P 15   4528.192285 -23710.960151 -11050.999743    -81.767552                    
V 15   9141.244175 -10998.448275  27280.022544      -.035591                    
P 16  -6229.693353  16835.941591  19586.574018    132.288752                    
V 16 -13023.186497 -21093.464423  14225.272380      -.006678                    
P 17  18782.053849  -9479.327987 -16090.747159     41.629862                    
V 17  -8802.226168  18675.805835 -21391.881862      -.006200                    
P 18 -18195.191776 -14081.195430 -13397.325757   -199.545116                    
V 18  -5916.003686 -16299.888654  24502.724126       .031960                    
P 19  -5644.539113  23022.706129 -11721.610957     22.927084                    
V 19 -10617.636030  11024.764980  26741.673012       .013308                    
P 20  13607.299039  22840.398995     75.938832    119.378158                    
V 20  -2608.592332   1817.520103 -31446.879528      -.007735                    
P 21 -25333.174903  -5885.339141   6935.520796     70.404592                    
V 21   8565.276883  -2604.926272  29180.899885      -.008734                    
P 22 -16473.610836    535.484120 -20681.711452    209.200755                    
V 22 -11412.764788 -24102.861692   8364.047676       .002402                    
P 23   3655.811218  18628.066731  18411.320563    338.347688                    
V 23 -13200.700339  19585.803402 -17357.154057       .026950                    
P 24 -15517.313252 -13068.448629  17161.584015     75.164709                    
V 24  21675.801938   -799.146324  19462.963813       .030610                    
P 25  19438.559655   9252.287720  15800.239128    522.432048                    
V 25 -19215.419885   3678.398368  22172.192901       .079402                    
P 26   7776.970946 -23453.380627  -9404.149578    198.415467                    
V 26   7789.329246  -8557.721193  29777.024856       .095953                    
P 27  24542.334112   5232.312734   9612.357939    171.799656                    
V 27 -11059.556943   2700.378606  28643.259960       .025331                    
P 28  17111.147283   2681.993683 -19858.325174    -15.992673                    
V 28  11405.802026  23319.741426  12403.642603      -.004872                    
P 29 -11311.369198 -10608.201999  21681.771326    -53.024881                    
V 29  14438.147942 -23118.741729  -3773.782807       .040372                    
P 30 -17934.560067 -17775.552298   8066.160615     66.176872                    
V 30  -3136.973189 -10636.757183 -29116.633383       .015161                    
P 31 -22702.994709   7985.938860  11556.967387    -11.387559                    
V 31 -14308.854648  -2120.646157 -27041.409847      -.014325                    
P 32  -9541.536514  13061.555661 -20680.216352    241.848218                    
V 32 -12129.402644 -24327.534717  -9406.851999       .083887                    
EOF
